CUTE-1 (CO-55)          
1 27844U 03031E   26167.82643209  .00000230  00000+0  11849-3 0  9998
2 27844  98.6736 176.3898 0009511 179.0123 181.1076 14.24335514191622
CUBESAT XI-IV (CO-57)   
1 27848U 03031J   26167.74442547  .00000195  00000+0  10473-3 0  9997
2 27848  98.6766 176.0218 0008995 198.3693 161.7162 14.23620607191318
CUBESAT XI-V            
1 28895U 05043F   26167.38340975  .00001200  00000+0  19649-3 0  9999
2 28895  98.2985 322.9884 0013585 203.3717 156.6874 14.72629782101632
CUTE-1.7+APD II (CO-65) 
1 32785U 08021C   26167.85103046  .00003795  00000+0  24109-3 0  9997
2 32785  97.8272 149.2625 0009804  40.0986 320.0964 15.09448624985143
CANX-2                  
1 32790U 08021H   26167.42426895  .00003996  00000+0  28118-3 0  9993
2 32790  97.8634 147.1868 0011441  52.6900 307.5367 15.05613108984695
SEEDS II (CO-66)        
1 32791U 08021J   26167.74386277  .00015231  00000+0  48396-3 0  9993
2 32791  97.7513 165.6203 0001104   5.3792 354.7461 15.32737938987227
SWISSCUBE               
1 35932U 09051B   26167.55290444  .00000809  00000+0  16935-3 0  9995
2 35932  98.4037  75.4301 0005921 205.2603 154.8309 14.62480577889065
BEESAT-1                
1 35933U 09051C   26167.69891536  .00000670  00000+0  14433-3 0  9997
2 35933  98.3964  75.2152 0004196 218.9046 141.1853 14.61719794889115
ITUPSAT1                
1 35935U 09051E   26167.68937774  .00000621  00000+0  13815-3 0  9992
2 35935  98.4049  74.3979 0006243 235.8160 124.2448 14.60440072888669
TISAT 1                 
1 36799U 10035E   26167.59447420  .00016569  00000+0  54375-3 0  9993
2 36799  98.0714 114.0908 0001322 168.3617 191.7653 15.31688582867615
AEROCUBE 4.5A           
1 38767U 12048K   26167.72347493  .00405953  73404-4  97395-3 0  9991
2 38767  64.6236  28.5825 0019565 224.5857 135.3733 15.95882107372585
STRAND-1                
1 39090U 13009E   26167.56865567  .00000207  00000+0  84083-4 0  9999
2 39090  98.3921 347.8182 0007698 227.4338 132.6200 14.37162942696977
BRITE-AUSTRIA           
1 39091U 13009F   26167.44196029  .00000141  00000+0  62460-4 0  9999
2 39091  98.3994 346.8961 0009125 239.0066 121.0225 14.36541877696949
NEE-01 PEGASO           
1 39151U 13018B   26167.39472627  .00002186  00000+0  21240-3 0  9992
2 39151  98.1216 311.5180 0013012 161.8951 198.2733 14.93656509710587
POPACS 2                
1 39269U 13055E   26166.36468816  .00010853  00000+0  18376-3 0  9990
2 39269  80.9902 146.2784 0416885 199.6373 158.8380 14.91171919662944
POPACS 3                
1 39270U 13055F   26166.47030025  .00008012  00000+0  18804-3 0  9991
2 39270  81.0017 231.0485 0552307  75.2193 290.9504 14.56095763638307
ZACUBE-1 (TSHEPISOSAT)  
1 39417U 13066B   26167.87404306  .00002572  00000+0  20205-3 0  9991
2 39417  97.8081 130.2093 0040770 248.7630 110.9237 15.01187648680687
WNISAT-1                
1 39423U 13066H   26167.66208888  .00000705  00000+0  13731-3 0  9994
2 39423  97.7201 316.8556 0161945 233.2571 125.3668 14.58061357666652
TRITON-1                
1 39427U 13066M   26167.82290409  .00000843  00000+0  10699-3 0  9999
2 39427  97.8253  77.6388 0088493 235.1505 124.1363 14.81702571674039
GOMX-1                  
1 39430U 13066Q   26167.84549977  .00001524  00000+0  23330-3 0  9995
2 39430  97.6477   8.3298 0130189  78.6172 282.9627 14.69459321669869
CUBEBUG-2 (LO-74)       
1 39440U 13066AA  26167.86222787  .00003954  00000+0  36654-3 0  9997
2 39440  97.8908 116.8389 0058408  30.1194 330.3363 14.93759610676940
NEE-02 KRYSAOR          
1 39441U 13066AB  26166.52650133  .00002075  00000+0  23065-3 0  9995
2 39441  97.8896 105.7532 0067689  75.5443 285.3271 14.86612031675959
FUNCUBE-1 (AO-73)       
1 39444U 13066AE  26167.85767792  .00005558  00000+0  34605-3 0  9996
2 39444  97.8277 139.2966 0035603 202.0284 157.9416 15.09487689679616
UWE-3                   
1 39446U 13066AG  26167.41356749  .00003778  00000+0  32608-3 0  9999
2 39446  97.8696 123.4820 0047700 323.7124  36.0865 14.97020137677465
BRITE-CA1 (TORONTO)     
1 40020U 14033L   26167.35833890  .00000605  00000+0  98796-4 0  9991
2 40020  97.9738 296.3015 0077228 279.7207  79.5284 14.72675728642092
DUCHIFAT-1              
1 40021U 14033M   26167.70185693  .00090859  00000+0  93727-3 0  9990
2 40021  98.0457 226.7943 0003011 117.2713 242.8852 15.64505076655671
NANOSATC-BR1            
1 40024U 14033Q   26167.02931394  .00014660  00000+0  48537-3 0  9990
2 40024  98.0716 199.3145 0004305 165.7271 194.4091 15.31427281653800
QB50P1                  
1 40025U 14033R   26167.75463622  .00006505  00000+0  32109-3 0  9992
2 40025  98.0959 178.8704 0007757 216.7389 143.3312 15.18255584652969
QB50P2                  
1 40032U 14033Y   26167.57176880  .00005101  00000+0  27579-3 0  9993
2 40032  98.0746 164.4136 0007953 164.9395 195.2074 15.15151501652579
PERSEUS-M2              
1 40037U 14033AD  26167.86241019  .00001129  00000+0  10743-3 0  9998
2 40037  97.9960 118.3965 0010781 305.2057  54.8153 14.95507190650736
